{"type": "FeatureCollection", "features": [ {"type": "Feature", "properties": {"norad_id": 35980, "name": "COSMOS 2251 DEB", "group": "cosmos-2251-debris", "lat": 43.77822166472948, "lon": 120.025232009841, "alt_km": 728.42542674793, "timestamp": "2025-12-22T11:33:20.836963+00:00", "meta": {"OBJECT_NAME": "COSMOS 2251 DEB", "OBJECT_ID": "1993-036AVW", "EPOCH": "2025-12-21T00:47:41.997408", "MEAN_MOTION": 14.59403711, "ECCENTRICITY": 0.00538655, "INCLINATION": 73.9127, "RA_OF_ASC_NODE": 106.7527, "ARG_OF_PERICENTER": 240.1949, "MEAN_ANOMALY": 119.3854, "EPHEMERIS_TYPE": 0, "CLASSIFICATION_TYPE": "U", "NORAD_CAT_ID": 35980, "ELEMENT_SET_NO": 999, "REV_AT_EPOCH": 61607, "BSTAR": 0.00094415254, "MEAN_MOTION_DOT": 4.534e-05, "MEAN_MOTION_DDOT": 0}, "tle": {"line1": "1 35980U 93036AVW 25355.03312497  .00004534  00000+0  94415-3 0  9996", "line2": "2 35980  73.9127 106.7527 0053865 240.1949 119.3854 14.59403711616076"}}, "geometry": {"type": "Point", "coordinates": [120.025232009841, 43.77822166472948]}}, {"type": "Feature", "properties": {"norad_id": 35982, "name": "COSMOS 2251 DEB", "group": "cosmos-2251-debris", "lat": 74.04765144077221, "lon": 57.76225978511185, "alt_km": 652.4345252055746, "timestamp": "2025-12-22T11:33:20.836973+00:00", "meta": {"OBJECT_NAME": "COSMOS 2251 DEB", "OBJECT_ID": "1993-036AVY", "EPOCH": "2025-12-21T08:53:22.101216", "MEAN_MOTION": 14.62796302, "ECCENTRICITY": 0.00644452, "INCLINATION": 74.0583, "RA_OF_ASC_NODE": 330.4066, "ARG_OF_PERICENTER": 34.1969, "MEAN_ANOMALY": 326.3322, "EPHEMERIS_TYPE": 0, "CLASSIFICATION_TYPE": "U", "NORAD_CAT_ID": 35982, "ELEMENT_SET_NO": 999, "REV_AT_EPOCH": 86292, "BSTAR": 0.00048464355, "MEAN_MOTION_DOT": 2.517e-05, "MEAN_MOTION_DDOT": 0}, "tle": {"line1": "1 35982U 93036AVY 25355.37039469  .00002517  00000+0  48464-3 0  9992", "line2": "2 35982  74.0583 330.4066 0064445  34.1969 326.3322 14.62796302862921"}}, "geometry": {"type": "Point", "coordinates": [57.76225978511185, 74.04765144077221]}}, {"type": "Feature", "properties": {"norad_id": 35987, "name": "COSMOS 2251 DEB", "group": "cosmos-2251-debris", "lat": 60.36858289099228, "lon": 98.21525518301462, "alt_km": 718.0436042061865, "timestamp": "2025-12-22T11:33:20.836983+00:00", "meta": {"OBJECT_NAME": "COSMOS 2251 DEB", "OBJECT_ID": "1993-036AWD", "EPOCH": "2025-12-21T03:25:05.273760", "MEAN_MOTION": 14.43173107, "ECCENTRICITY": 0.00462099, "INCLINATION": 74.0005, "RA_OF_ASC_NODE": 311.0003, "ARG_OF_PERICENTER": 74.0129, "MEAN_ANOMALY": 286.6111, "EPHEMERIS_TYPE": 0, "CLASSIFICATION_TYPE": "U", "NORAD_CAT_ID": 35987, "ELEMENT_SET_NO": 999, "REV_AT_EPOCH": 61186, "BSTAR": 0.00065128022, "MEAN_MOTION_DOT": 2.191e-05, "MEAN_MOTION_DDOT": 0}, "tle": {"line1": "1 35987U 93036AWD 25355.14242215  .00002191  00000+0  65128-3 0  9991", "line2": "2 35987  74.0005 311.0003 0046209  74.0129 286.6111 14.43173107611860"}}, "geometry": {"type": "Point", "coordinates": [98.21525518301462, 60.36858289099228]}}, {"type": "Feature", "properties": {"norad_id": 35989, "name": "COSMOS 2251 DEB", "group": "cosmos-2251-debris", "lat": -49.542147438980344, "lon": -113.69262025629244, "alt_km": 761.9289402229069, "timestamp": "2025-12-22T11:33:20.836993+00:00", "meta": {"OBJECT_NAME": "COSMOS 2251 DEB", "OBJECT_ID": "1993-036AWF", "EPOCH": "2025-12-21T00:42:48.161376", "MEAN_MOTION": 14.37112482, "ECCENTRICITY": 0.00223748, "INCLINATION": 74.0376, "RA_OF_ASC_NODE": 268.5863, "ARG_OF_PERICENTER": 348.5916, "MEAN_ANOMALY": 11.4727, "EPHEMERIS_TYPE": 0, "CLASSIFICATION_TYPE": "U", "NORAD_CAT_ID": 35989, "ELEMENT_SET_NO": 999, "REV_AT_EPOCH": 87298, "BSTAR": 0.00015604931, "MEAN_MOTION_DOT": 4.39e-06, "MEAN_MOTION_DDOT": 0}, "tle": {"line1": "1 35989U 93036AWF 25355.02972409  .00000439  00000+0  15605-3 0  9993", "line2": "2 35989  74.0376 268.5863 0022374 348.5916  11.4727 14.37112482872984"}}, "geometry": {"type": "Point", "coordinates": [-113.69262025629244, -49.542147438980344]}}, {"type": "Feature", "properties": {"norad_id": 35993, "name": "COSMOS 2251 DEB", "group": "cosmos-2251-debris", "lat": 73.20952557751278, "lon": 62.22222097715431, "alt_km": 654.3775074314426, "timestamp": "2025-12-22T11:33:20.837003+00:00", "meta": {"OBJECT_NAME": "COSMOS 2251 DEB", "OBJECT_ID": "1993-036AWK", "EPOCH": "2025-12-21T03:59:29.501088", "MEAN_MOTION": 14.65356197, "ECCENTRICITY": 0.0028516, "INCLINATION": 74.0154, "RA_OF_ASC_NODE": 316.5577, "ARG_OF_PERICENTER": 143.4068, "MEAN_ANOMALY": 216.9056, "EPHEMERIS_TYPE": 0, "CLASSIFICATION_TYPE": "U", "NORAD_CAT_ID": 35993, "ELEMENT_SET_NO": 999, "REV_AT_EPOCH": 60566, "BSTAR": 0.00046927088, "MEAN_MOTION_DOT": 2.519e-05, "MEAN_MOTION_DDOT": 0}, "tle": {"line1": "1 35993U 93036AWK 25355.16631367  .00002519  00000+0  46927-3 0  9990", "line2": "2 35993  74.0154 316.5577 0028516 143.4068 216.9056 14.65356197605663"}}, "geometry": {"type": "Point", "coordinates": [62.22222097715431, 73.20952557751278]}}, {"type": "Feature", "properties": {"norad_id": 35996, "name": "COSMOS 2251 DEB", "group": "cosmos-2251-debris", "lat": -70.90850921813245, "lon": 27.401265336544203, "alt_km": 564.1706424474978, "timestamp": "2025-12-22T11:33:20.837013+00:00", "meta": {"OBJECT_NAME": "COSMOS 2251 DEB", "OBJECT_ID": "1993-036AWN", "EPOCH": "2025-12-15T22:25:06.327264", "MEAN_MOTION": 15.09228347, "ECCENTRICITY": 0.00876626, "INCLINATION": 74.0159, "RA_OF_ASC_NODE": 96.8248, "ARG_OF_PERICENTER": 187.0066, "MEAN_ANOMALY": 172.9909, "EPHEMERIS_TYPE": 0, "CLASSIFICATION_TYPE": "U", "NORAD_CAT_ID": 35996, "ELEMENT_SET_NO": 999, "REV_AT_EPOCH": 72374, "BSTAR": 0.00054952121, "MEAN_MOTION_DOT": 9.536e-05, "MEAN_MOTION_DDOT": 0}, "tle": {"line1": "1 35996U 93036AWN 25349.93410101  .00009536  00000+0  54952-3 0  9995", "line2": "2 35996  74.0159  96.8248 0087662 187.0066 172.9909 15.09228347723745"}}, "geometry": {"type": "Point", "coordinates": [27.401265336544203, -70.90850921813245]}}, {"type": "Feature", "properties": {"norad_id": 35997, "name": "COSMOS 2251 DEB", "group": "cosmos-2251-debris", "lat": 37.080761373421446, "lon": -23.516814741654162, "alt_km": 720.544551550297, "timestamp": "2025-12-22T11:33:20.837023+00:00", "meta": {"OBJECT_NAME": "COSMOS 2251 DEB", "OBJECT_ID": "1993-036AWP", "EPOCH": "2025-12-19T05:09:14.184000", "MEAN_MOTION": 14.51343045, "ECCENTRICITY": 0.0015535, "INCLINATION": 74.0424, "RA_OF_ASC_NODE": 175.1147, "ARG_OF_PERICENTER": 250.287, "MEAN_ANOMALY": 109.6616, "EPHEMERIS_TYPE": 0, "CLASSIFICATION_TYPE": "U", "NORAD_CAT_ID": 35997, "ELEMENT_SET_NO": 999, "REV_AT_EPOCH": 70978, "BSTAR": 0.00045886, "MEAN_MOTION_DOT": 1.803e-05, "MEAN_MOTION_DDOT": 0}, "tle": {"line1": "1 35997U 93036AWP 25353.21474750  .00001803  00000+0  45886-3 0  9997", "line2": "2 35997  74.0424 175.1147 0015535 250.2870 109.6616 14.51343045709785"}}, "geometry": {"type": "Point", "coordinates": [-23.516814741654162, 37.080761373421446]}}, {"type": "Feature", "properties": {"norad_id": 36005, "name": "COSMOS 2251 DEB", "group": "cosmos-2251-debris", "lat": 32.06580343056162, "lon": 86.11678699332276, "alt_km": 775.8490332166139, "timestamp": "2025-12-22T11:33:20.837033+00:00", "meta": {"OBJECT_NAME": "COSMOS 2251 DEB", "OBJECT_ID": "1993-036AWX", "EPOCH": "2025-12-21T12:10:32.073024", "MEAN_MOTION": 14.47370348, "ECCENTRICITY": 0.00616635, "INCLINATION": 74.0271, "RA_OF_ASC_NODE": 77.602, "ARG_OF_PERICENTER": 213.1392, "MEAN_ANOMALY": 146.5899, "EPHEMERIS_TYPE": 0, "CLASSIFICATION_TYPE": "U", "NORAD_CAT_ID": 36005, "ELEMENT_SET_NO": 999, "REV_AT_EPOCH": 87711, "BSTAR": 0.00015353454, "MEAN_MOTION_DOT": 5.47e-06, "MEAN_MOTION_DDOT": 0}, "tle": {"line1": "1 36005U 93036AWX 25355.50731566  .00000547  00000+0  15353-3 0  9993", "line2": "2 36005  74.0271  77.6020 0061663 213.1392 146.5899 14.47370348877119"}}, "geometry": {"type": "Point", "coordinates": [86.11678699332276, 32.06580343056162]}}, {"type": "Feature", "properties": {"norad_id": 36045, "name": "COSMOS 2251 DEB", "group": "cosmos-2251-debris", "lat": 16.954054469218427, "lon": -145.20500527272367, "alt_km": 673.1474166640483, "timestamp": "2025-12-22T11:33:20.837043+00:00", "meta": {"OBJECT_NAME": "COSMOS 2251 DEB", "OBJECT_ID": "1993-036AXG", "EPOCH": "2025-12-17T21:23:36.435552", "MEAN_MOTION": 14.69971183, "ECCENTRICITY": 0.0048002, "INCLINATION": 73.7643, "RA_OF_ASC_NODE": 48.9349, "ARG_OF_PERICENTER": 60.9199, "MEAN_ANOMALY": 299.6765, "EPHEMERIS_TYPE": 0, "CLASSIFICATION_TYPE": "U", "NORAD_CAT_ID": 36045, "ELEMENT_SET_NO": 999, "REV_AT_EPOCH": 8464, "BSTAR": 0.0014164853, "MEAN_MOTION_DOT": 8.618e-05, "MEAN_MOTION_DDOT": 0}, "tle": {"line1": "1 36045U 93036AXG 25351.89139393  .00008618  00000+0  14165-2 0  9991", "line2": "2 36045  73.7643  48.9349 0048002  60.9199 299.6765 14.69971183 84640"}}, "geometry": {"type": "Point", "coordinates": [-145.20500527272367, 16.954054469218427]}}, {"type": "Feature", "properties": {"norad_id": 36046, "name": "COSMOS 2251 DEB", "group": "cosmos-2251-debris", "lat": 55.3017212819022, "lon": -77.81759617865788, "alt_km": 632.8976028279512, "timestamp": "2025-12-22T11:33:20.837053+00:00", "meta": {"OBJECT_NAME": "COSMOS 2251 DEB", "OBJECT_ID": "1993-036AXH", "EPOCH": "2025-12-21T00:56:56.522112", "MEAN_MOTION": 14.65315014, "ECCENTRICITY": 0.00558701, "INCLINATION": 74.0169, "RA_OF_ASC_NODE": 260.5061, "ARG_OF_PERICENTER": 44.1197, "MEAN_ANOMALY": 331.1837, "EPHEMERIS_TYPE": 0, "CLASSIFICATION_TYPE": "U", "NORAD_CAT_ID": 36046, "ELEMENT_SET_NO": 999, "REV_AT_EPOCH": 64125, "BSTAR": 0.00034570915, "MEAN_MOTION_DOT": 1.877e-05, "MEAN_MOTION_DDOT": 0}, "tle": {"line1": "1 36046U 93036AXH 25355.03954308  .00001877  00000+0  34571-3 0  9997", "line2": "2 36046  74.0169 260.5061 0055870  44.1197 331.1837 14.65315014641253"}}, "geometry": {"type": "Point", "coordinates": [-77.81759617865788, 55.3017212819022]}}]}